{
  "norad_id": 57444,
  "name": "STARLINK-30181",
  "history": [
    {
      "epoch": "2026-03-28T20:00:01.999872Z",
      "apogee_km": 493.79518642188486,
      "perigee_km": 491.4731405994644,
      "latitude_deg": -32.67862266045404,
      "longitude_deg": -14.507383726428431,
      "height_km": 500.67867869338505,
      "semi_major_axis_km": 6870.771163510674,
      "eccentricity": 0.00016898,
      "inclination_deg": 43.0,
      "raan_deg": 154.9133,
      "arg_perigee_deg": 280.1183,
      "mean_anomaly_deg": 27.8837,
      "mean_motion_rev_day": 15.2438454
    },
    {
      "epoch": "2026-03-29T04:00:01.999584Z",
      "apogee_km": 493.1996025560775,
      "perigee_km": 490.6631733072527,
      "latitude_deg": -14.09146208501453,
      "longitude_deg": -109.07154048797054,
      "height_km": 494.3217932199097,
      "semi_major_axis_km": 6870.068387931665,
      "eccentricity": 0.0001846,
      "inclination_deg": 43.0006,
      "raan_deg": 153.0409,
      "arg_perigee_deg": 261.3913,
      "mean_anomaly_deg": 77.8739,
      "mean_motion_rev_day": 15.24618452
    }
  ]
}